OBJECT_NAME,OBJECT_ID,EPOCH,MEAN_MOTION,ECCENTRICITY,INCLINATION,RA_OF_ASC_NODE,ARG_OF_PERICENTER,MEAN_ANOMALY,EPHEMERIS_TYPE,CLASSIFICATION_TYPE,NORAD_CAT_ID,ELEMENT_SET_NO,REV_AT_EPOCH,BSTAR,MEAN_MOTION_DOT,MEAN_MOTION_DDOT
STARLINK-37537,2026-126A,2026-07-06T02:30:59.679360,15.75379686,.00018055,97.2847,48.0093,82.5461,277.6009,0,U,69420,999,572,.18990247E-2,.295562E-2,0
STARLINK-37585,2026-126B,2026-07-06T03:47:13.758432,15.75285440,.00016908,97.2838,48.0901,115.0795,245.0646,0,U,69421,999,573,.11071593E-2,.169017E-2,0
STARLINK-37573,2026-126C,2026-07-06T04:07:02.676000,15.75274192,.00019299,97.2842,48.0705,74.6532,285.4946,0,U,69422,999,573,.14735774E-2,.226417E-2,0
STARLINK-37820,2026-126D,2026-07-06T04:28:24.165984,15.75313958,.00020201,97.2843,48.2057,78.8972,281.2521,0,U,69423,999,574,.13801568E-2,.212061E-2,0
STARLINK-37822,2026-126E,2026-07-06T03:20:18.194208,15.75304787,.00017192,97.2828,48.1158,82.1795,277.9665,0,U,69424,999,573,.16102424E-2,.248397E-2,0
STARLINK-37836,2026-126F,2026-07-06T04:24:19.721376,15.75318677,.0001406,97.2843,48.2101,76.4498,283.6924,0,U,69425,999,574,.14358115E-2,.220888E-2,0
STARLINK-37850,2026-126G,2026-07-06T02:59:57.979968,15.75365060,.00008668,97.2843,48.1368,347.5542,12.5702,0,U,69426,999,578,.19203325E-2,.298812E-2,0
STARLINK-37823,2026-126H,2026-07-06T03:29:26.998368,15.75279723,.00018146,97.2837,48.1082,92.0862,268.0611,0,U,69427,999,573,.89934793E-3,.136714E-2,0
STARLINK-37834,2026-126J,2026-07-06T03:41:36.236832,15.75186813,.00002604,97.2842,48.0960,184.9534,175.1729,0,U,69428,999,573,.15807767E-2,.242447E-2,0
STARLINK-37857,2026-126K,2026-07-06T03:25:23.894688,15.75249046,.00019235,97.2826,48.1120,66.2936,293.8531,0,U,69429,999,573,.12337655E-2,.188497E-2,0
STARLINK-37866,2026-126L,2026-07-06T04:21:16.905888,15.75282738,.00016987,97.2845,48.2126,83.5797,276.5661,0,U,69430,999,579,.83419837E-3,.126667E-2,0
STARLINK-37555,2026-126M,2026-07-06T03:08:05.981856,15.75319554,.00014109,97.2836,48.1291,82.7548,277.3877,0,U,69431,999,578,.18460955E-2,.286259E-2,0
STARLINK-37870,2026-126N,2026-07-06T04:34:29.212896,15.75340848,.00006197,97.2841,48.2002,102.3614,257.7721,0,U,69432,999,574,.14140999E-2,.217674E-2,0
STARLINK-37872,2026-126P,2026-07-06T04:12:38.085120,15.75322148,.00007004,97.2840,48.2208,130.7894,229.3432,0,U,69433,999,574,.11016417E-2,.168427E-2,0
STARLINK-37815,2026-126Q,2026-07-06T03:52:48.655200,15.75182738,.00032405,97.2840,48.0845,57.2696,302.8881,0,U,69434,999,573,.13563557E-2,.207126E-2,0
STARLINK-37801,2026-126R,2026-07-06T03:32:29.641056,15.75263404,.00025237,97.2837,48.1058,68.7915,291.3620,0,U,69435,999,578,.13542426E-2,.207518E-2,0
STARLINK-37800,2026-126S,2026-07-06T03:35:32.639712,15.75236012,.00011882,97.2835,48.1020,80.2663,279.8736,0,U,69436,999,573,.14245514E-2,.218306E-2,0
STARLINK-37792,2026-126T,2026-07-06T04:00:01.999584,15.75303129,.00017129,97.2853,48.2259,95.9005,248.6046,0,U,69437,999,580,-.11809939E-2,-.173614E-2,0
STARLINK-37783,2026-126U,2026-07-06T04:15:40.313088,15.75165204,.0000942,97.2841,48.2182,106.9450,253.1919,0,U,69438,999,579,.12604698E-2,.191957E-2,0
STARLINK-37771,2026-126V,2026-07-06T03:58:55.699680,15.75286837,.00027599,97.2843,48.0786,62.2323,297.9222,0,U,69439,999,573,.1706184E-2,.263484E-2,0
STARLINK-37747,2026-126W,2026-07-06T03:14:11.986080,15.75283584,.00010985,97.2839,48.1226,96.4145,263.7245,0,U,69440,999,573,.1582679E-2,.243786E-2,0
STARLINK-37629,2026-127A,2026-07-06T03:35:33.224640,15.75394680,.00011811,53.1590,168.1719,124.1403,235.9730,0,U,69443,999,439,.15469233E-2,.245145E-2,0
STARLINK-37509,2026-127B,2026-07-06T03:29:01.071456,15.76141764,.00056336,53.1600,168.1420,194.0422,166.0443,0,U,69444,999,439,.18386308E-2,.303454E-2,0
STARLINK-37641,2026-127C,2026-07-06T04:40:46.042176,15.75370204,.00009111,53.1575,167.7342,100.4045,259.7078,0,U,69445,999,440,.13994025E-2,.220827E-2,0
STARLINK-37522,2026-127D,2026-07-05T22:54:56.979360,15.75327369,.00011073,53.1594,169.0883,86.6941,273.4206,0,U,69446,999,436,.21958378E-2,.35169E-2,0
STARLINK-37640,2026-127E,2026-07-06T04:21:09.800352,15.75355232,.0000992,53.1586,167.6464,89.7213,270.3921,0,U,69447,999,440,.11614704E-2,.182208E-2,0
STARLINK-37572,2026-127F,2026-07-06T04:47:47.623200,15.75302797,.00015485,53.1598,167.7676,28.3453,331.7651,0,U,69448,999,440,.15056533E-2,.237412E-2,0
STARLINK-37643,2026-127G,2026-07-06T04:00:01.999584,15.75396428,.00013301,53.1592,167.9864,53.9061,92.2478,0,U,69449,999,569,-.12210494E-2,-.185051E-2,0
STARLINK-37601,2026-127H,2026-07-04T23:57:54.076320,15.75407820,.0001291,53.1600,173.7864,166.2692,193.8364,0,U,69450,999,421,.25681E-2,.416062E-2,0
STARLINK-37578,2026-127J,2026-07-06T06:05:35.674368,15.75322915,.0001662,53.1565,167.3880,53.7322,306.3851,0,U,69451,999,441,.71083279E-3,.110157E-2,0
