STARLINK-37537          
1 69420U 26126A   26187.10485740  .00295562  00000+0  18990-2 0  9998
2 69420  97.2847  48.0093 0001805  82.5461 277.6009 15.75379686  5726
STARLINK-37585          
1 69421U 26126B   26187.15779813  .00169017  00000+0  11072-2 0  9990
2 69421  97.2838  48.0901 0001690 115.0795 245.0646 15.75285440  5730
STARLINK-37573          
1 69422U 26126C   26187.17155875  .00226417  00000+0  14736-2 0  9997
2 69422  97.2842  48.0705 0001929  74.6532 285.4946 15.75274192  5735
STARLINK-37820          
1 69423U 26126D   26187.18639081  .00212061  00000+0  13802-2 0  9998
2 69423  97.2843  48.2057 0002020  78.8972 281.2521 15.75313958  5744
STARLINK-37822          
1 69424U 26126E   26187.13909947  .00248397  00000+0  16102-2 0  9992
2 69424  97.2828  48.1158 0001719  82.1795 277.9665 15.75304787  5734
STARLINK-37836          
1 69425U 26126F   26187.18356159  .00220888  00000+0  14358-2 0  9995
2 69425  97.2843  48.2101 0001406  76.4498 283.6924 15.75318677  5746
STARLINK-37850          
1 69426U 26126G   26187.12497662  .00298812  00000+0  19203-2 0  9991
2 69426  97.2843  48.1368 0000866 347.5542  12.5702 15.75365060  5787
STARLINK-37823          
1 69427U 26126H   26187.14545137  .00136714  00000+0  89935-3 0  9997
2 69427  97.2837  48.1082 0001814  92.0862 268.0611 15.75279723  5737
STARLINK-37834          
1 69428U 26126J   26187.15389163  .00242447  00000+0  15808-2 0  9992
2 69428  97.2842  48.0960 0000260 184.9534 175.1729 15.75186813  5734
STARLINK-37857          
1 69429U 26126K   26187.14263767  .00188497  00000+0  12338-2 0  9992
2 69429  97.2826  48.1120 0001923  66.2936 293.8531 15.75249046  5738
STARLINK-37866          
1 69430U 26126L   26187.18144567  .00126667  00000+0  83420-3 0  9996
2 69430  97.2845  48.2126 0001698  83.5797 276.5661 15.75282738  5797
STARLINK-37555          
1 69431U 26126M   26187.13062479  .00286259  00000+0  18461-2 0  9999
2 69431  97.2836  48.1291 0001410  82.7548 277.3877 15.75319554  5781
STARLINK-37870          
1 69432U 26126N   26187.19061589  .00217674  00000+0  14141-2 0  9993
2 69432  97.2841  48.2002 0000619 102.3614 257.7721 15.75340848  5748
STARLINK-37872          
1 69433U 26126P   26187.17544080  .00168427  00000+0  11016-2 0  9993
2 69433  97.2840  48.2208 0000700 130.7894 229.3432 15.75322148  5749
STARLINK-37815          
1 69434U 26126Q   26187.16167425  .00207126  00000+0  13564-2 0  9997
2 69434  97.2840  48.0845 0003240  57.2696 302.8881 15.75182738  5733
STARLINK-37801          
1 69435U 26126R   26187.14756529  .00207518  00000+0  13542-2 0  9996
2 69435  97.2837  48.1058 0002523  68.7915 291.3620 15.75263404  5789
STARLINK-37800          
1 69436U 26126S   26187.14968333  .00218306  00000+0  14246-2 0  9994
2 69436  97.2835  48.1020 0001188  80.2663 279.8736 15.75236012  5731
STARLINK-37792          
1 69437U 26126T   26187.16668981 -.00173614  00000+0 -11810-2 0  9991
2 69437  97.2853  48.2259 0001712  95.9005 248.6046 15.75303129  5803
STARLINK-37783          
1 69438U 26126U   26187.17754992  .00191957  00000+0  12605-2 0  9992
2 69438  97.2841  48.2182 0000942 106.9450 253.1919 15.75165204  5795
STARLINK-37771          
1 69439U 26126V   26187.16592245  .00263484  00000+0  17062-2 0  9990
2 69439  97.2843  48.0786 0002759  62.2323 297.9222 15.75286837  5730
STARLINK-37747          
1 69440U 26126W   26187.13486095  .00243786  00000+0  15827-2 0  9994
2 69440  97.2839  48.1226 0001098  96.4145 263.7245 15.75283584  5735
STARLINK-37629          
1 69443U 26127A   26187.14969010  .00245145  00000+0  15469-2 0  9995
2 69443  53.1590 168.1719 0001181 124.1403 235.9730 15.75394680  4393
STARLINK-37509          
1 69444U 26127B   26187.14515129  .00303454  00000+0  18386-2 0  9993
2 69444  53.1600 168.1420 0005633 194.0422 166.0443 15.76141764  4397
STARLINK-37641          
1 69445U 26127C   26187.19497734  .00220827  00000+0  13994-2 0  9992
2 69445  53.1575 167.7342 0000911 100.4045 259.7078 15.75370204  4401
STARLINK-37522          
1 69446U 26127D   26186.95482615  .00351690  00000+0  21958-2 0  9990
2 69446  53.1594 169.0883 0001107  86.6941 273.4206 15.75327369  4361
STARLINK-37640          
1 69447U 26127E   26187.18136343  .00182208  00000+0  11615-2 0  9997
2 69447  53.1586 167.6464 0000992  89.7213 270.3921 15.75355232  4404
STARLINK-37572          
1 69448U 26127F   26187.19985675  .00237412  00000+0  15057-2 0  9991
2 69448  53.1598 167.7676 0001548  28.3453 331.7651 15.75302797  4407
STARLINK-37643          
1 69449U 26127G   26187.16668981 -.00185051  00000+0 -12210-2 0  9998
2 69449  53.1592 167.9864 0001330  53.9061  92.2478 15.75396428  5693
STARLINK-37601          
1 69450U 26127H   26185.99854255  .00416062  00000+0  25681-2 0  9993
2 69450  53.1600 173.7864 0001291 166.2692 193.8364 15.75407820  4212
STARLINK-37578          
1 69451U 26127J   26187.25388512  .00110157  00000+0  71083-3 0  9997
2 69451  53.1565 167.3880 0001662  53.7322 306.3851 15.75322915  4417
